{
  "type": "FeatureCollection",
  "features": [
    {
      "type": "Feature",
      "properties": {
        "norad_id": 65729,
        "name": "DRAGONFLY",
        "group": "stations",
        "lat": 51.40575324200674,
        "lon": -109.91644641223493,
        "alt_km": 354.6953568071922,
        "timestamp": "2025-12-09T07:41:31.989681+00:00",
        "meta_object_name": "DRAGONFLY",
        "meta_object_id": "1998-067XH",
        "meta_epoch": "2025-12-08T17:32:47.526432",
        "meta_mean_motion": 15.70229086,
        "meta_eccentricity": 0.00065245,
        "meta_inclination": 51.6249,
        "meta_ra_of_asc_node": 156.265,
        "meta_arg_of_pericenter": 251.495,
        "meta_mean_anomaly": 108.5339,
        "meta_ephemeris_type": 0,
        "meta_classification_type": "U",
        "meta_norad_cat_id": 65729,
        "meta_element_set_no": 999,
        "meta_rev_at_epoch": 1253,
        "meta_bstar": 0.0013272482,
        "meta_mean_motion_dot": 0.00167478,
        "meta_mean_motion_ddot": 0,
        "tle_line1": "1 65729U 98067XH  25342.73110563  .00167478  00000+0  13272-2 0  9990",
        "tle_line2": "2 65729  51.6249 156.2650 0006524 251.4950 108.5339 15.70229086 12536"
      },
      "geometry": {
        "type": "Point",
        "coordinates": [
          -109.91644641223493,
          51.40575324200674
        ]
      }
    },
    {
      "type": "Feature",
      "properties": {
        "norad_id": 65731,
        "name": "1998-067XK",
        "group": "stations",
        "lat": -8.434864590003905,
        "lon": -18.68525135833599,
        "alt_km": 372.40272952523264,
        "timestamp": "2025-12-09T07:41:31.989694+00:00",
        "meta_object_name": "1998-067XK",
        "meta_object_id": "1998-067XK",
        "meta_epoch": "2025-12-08T12:29:14.710560",
        "meta_mean_motion": 15.64682619,
        "meta_eccentricity": 0.00053917,
        "meta_inclination": 51.6277,
        "meta_ra_of_asc_node": 158.6227,
        "meta_arg_of_pericenter": 219.7303,
        "meta_mean_anomaly": 140.3298,
        "meta_ephemeris_type": 0,
        "meta_classification_type": "U",
        "meta_norad_cat_id": 65731,
        "meta_element_set_no": 999,
        "meta_rev_at_epoch": 1248,
        "meta_bstar": 0.00099222834,
        "meta_mean_motion_dot": 0.00098864,
        "meta_mean_motion_ddot": 0,
        "tle_line1": "1 65731U 98067XK  25342.52030915  .00098864  00000+0  99223-3 0  9995",
        "tle_line2": "2 65731  51.6277 158.6227 0005391 219.7303 140.3298 15.64682619 12486"
      },
      "geometry": {
        "type": "Point",
        "coordinates": [
          -18.68525135833599,
          -8.434864590003905
        ]
      }
    },
    {
      "type": "Feature",
      "properties": {
        "norad_id": 65732,
        "name": "RSP-03",
        "group": "stations",
        "lat": 37.32510942350026,
        "lon": -63.23600518650965,
        "alt_km": 361.71722250292987,
        "timestamp": "2025-12-09T07:41:31.989705+00:00",
        "meta_object_name": "RSP-03",
        "meta_object_id": "1998-067XL",
        "meta_epoch": "2025-12-08T18:54:04.824576",
        "meta_mean_motion": 15.67324417,
        "meta_eccentricity": 0.00061707,
        "meta_inclination": 51.626,
        "meta_ra_of_asc_node": 156.6485,
        "meta_arg_of_pericenter": 224.9015,
        "meta_mean_anomaly": 135.1483,
        "meta_ephemeris_type": 0,
        "meta_classification_type": "U",
        "meta_norad_cat_id": 65732,
        "meta_element_set_no": 999,
        "meta_rev_at_epoch": 1254,
        "meta_bstar": 0.0012544744,
        "meta_mean_motion_dot": 0.00139916,
        "meta_mean_motion_ddot": 0,
        "tle_line1": "1 65732U 98067XL  25342.78755584  .00139916  00000+0  12545-2 0  9995",
        "tle_line2": "2 65732  51.6260 156.6485 0006170 224.9015 135.1483 15.67324417 12544"
      },
      "geometry": {
        "type": "Point",
        "coordinates": [
          -63.23600518650965,
          37.32510942350026
        ]
      }
    },
    {
      "type": "Feature",
      "properties": {
        "norad_id": 65733,
        "name": "GHS-01",
        "group": "stations",
        "lat": -19.598747850398087,
        "lon": 136.37073516848346,
        "alt_km": 352.5299730429524,
        "timestamp": "2025-12-09T07:41:31.989716+00:00",
        "meta_object_name": "GHS-01",
        "meta_object_id": "1998-067XM",
        "meta_epoch": "2025-12-08T19:36:02.783232",
        "meta_mean_motion": 15.72760955,
        "meta_eccentricity": 0.00069125,
        "meta_inclination": 51.6282,
        "meta_ra_of_asc_node": 155.3426,
        "meta_arg_of_pericenter": 252.4129,
        "meta_mean_anomaly": 107.6114,
        "meta_ephemeris_type": 0,
        "meta_classification_type": "U",
        "meta_norad_cat_id": 65733,
        "meta_element_set_no": 999,
        "meta_rev_at_epoch": 1256,
        "meta_bstar": 0.0014613084,
        "meta_mean_motion_dot": 0.00206243,
        "meta_mean_motion_ddot": 0,
        "tle_line1": "1 65733U 98067XM  25342.81669888  .00206243  00000+0  14613-2 0  9997",
        "tle_line2": "2 65733  51.6282 155.3426 0006912 252.4129 107.6114 15.72760955 12560"
      },
      "geometry": {
        "type": "Point",
        "coordinates": [
          136.37073516848346,
          -19.598747850398087
        ]
      }
    },
    {
      "type": "Feature",
      "properties": {
        "norad_id": 65941,
        "name": "YOTSUBA-KULOVER",
        "group": "stations",
        "lat": 21.264672138995916,
        "lon": 175.1146828454435,
        "alt_km": 389.8147116623495,
        "timestamp": "2025-12-09T07:41:31.989726+00:00",
        "meta_object_name": "YOTSUBA-KULOVER",
        "meta_object_id": "1998-067XN",
        "meta_epoch": "2025-12-08T16:11:16.679040",
        "meta_mean_motion": 15.58725095,
        "meta_eccentricity": 0.00016918,
        "meta_inclination": 51.6278,
        "meta_ra_of_asc_node": 160.3988,
        "meta_arg_of_pericenter": 209.1564,
        "meta_mean_anomaly": 150.9334,
        "meta_ephemeris_type": 0,
        "meta_classification_type": "U",
        "meta_norad_cat_id": 65941,
        "meta_element_set_no": 999,
        "meta_rev_at_epoch": 922,
        "meta_bstar": 0.00092611573,
        "meta_mean_motion_dot": 0.00072881,
        "meta_mean_motion_ddot": 0,
        "tle_line1": "1 65941U 98067XN  25342.67449860  .00072881  00000+0  92612-3 0  9993",
        "tle_line2": "2 65941  51.6278 160.3988 0001691 209.1564 150.9334 15.58725095  9220"
      },
      "geometry": {
        "type": "Point",
        "coordinates": [
          175.1146828454435,
          21.264672138995916
        ]
      }
    },
    {
      "type": "Feature",
      "properties": {
        "norad_id": 65942,
        "name": "BOTAN",
        "group": "stations",
        "lat": -32.93874970278377,
        "lon": 125.66657955698484,
        "alt_km": 386.7982586139142,
        "timestamp": "2025-12-09T07:41:31.989736+00:00",
        "meta_object_name": "BOTAN",
        "meta_object_id": "1998-067XP",
        "meta_epoch": "2025-12-08T16:31:24.604608",
        "meta_mean_motion": 15.61763471,
        "meta_eccentricity": 0.00036454,
        "meta_inclination": 51.6288,
        "meta_ra_of_asc_node": 159.7433,
        "meta_arg_of_pericenter": 204.4965,
        "meta_mean_anomaly": 155.5857,
        "meta_ephemeris_type": 0,
        "meta_classification_type": "U",
        "meta_norad_cat_id": 65942,
        "meta_element_set_no": 999,
        "meta_rev_at_epoch": 923,
        "meta_bstar": 0.0012577931,
        "meta_mean_motion_dot": 0.00112002,
        "meta_mean_motion_ddot": 0,
        "tle_line1": "1 65942U 98067XP  25342.68847922  .00112002  00000+0  12578-2 0  9998",
        "tle_line2": "2 65942  51.6288 159.7433 0003645 204.4965 155.5857 15.61763471  9239"
      },
      "geometry": {
        "type": "Point",
        "coordinates": [
          125.66657955698484,
          -32.93874970278377
        ]
      }
    },
    {
      "type": "Feature",
      "properties": {
        "norad_id": 65943,
        "name": "E-KAGAKU-1",
        "group": "stations",
        "lat": 21.13030895069962,
        "lon": 174.9906501349351,
        "alt_km": 390.7621592898786,
        "timestamp": "2025-12-09T07:41:31.989746+00:00",
        "meta_object_name": "E-KAGAKU-1",
        "meta_object_id": "1998-067XQ",
        "meta_epoch": "2025-12-08T17:43:35.861664",
        "meta_mean_motion": 15.58651727,
        "meta_eccentricity": 0.00029774,
        "meta_inclination": 51.6297,
        "meta_ra_of_asc_node": 160.0822,
        "meta_arg_of_pericenter": 178.8942,
        "meta_mean_anomaly": 181.2057,
        "meta_ephemeris_type": 0,
        "meta_classification_type": "U",
        "meta_norad_cat_id": 65943,
        "meta_element_set_no": 999,
        "meta_rev_at_epoch": 923,
        "meta_bstar": 0.00085624806,
        "meta_mean_motion_dot": 0.00067115,
        "meta_mean_motion_ddot": 0,
        "tle_line1": "1 65943U 98067XQ  25342.73860951  .00067115  00000+0  85625-3 0  9990",
        "tle_line2": "2 65943  51.6297 160.0822 0002977 178.8942 181.2057 15.58651727  9237"
      },
      "geometry": {
        "type": "Point",
        "coordinates": [
          174.9906501349351,
          21.13030895069962
        ]
      }
    }
  ]
}